TDRS 3                  
1 19548U 88091B   24102.50886987 -.00000309  00000+0  00000+0 0  9994
2 19548  13.2147 346.3929 0037829 341.8664   5.9535  1.00280724117374
HST                     
1 20580U 90037B   24101.63241124  .00004915  00000+0  23485-3 0  9998
2 20580  28.4688  77.3951 0002457  20.5440 339.5250 15.16655132666761
TDRS 5                  
1 21639U 91054B   24102.14636174 -.00000307  00000+0  00000+0 0  9990
2 21639  14.1729 359.6029 0003544 354.8266 186.5448  1.00627952119729
TDRS 6                  
1 22314U 93003B   24102.22209642 -.00000304  00000+0  00000+0 0  9999
2 22314  14.1621   2.9047 0008434 142.9631  88.1471  1.00270013114386
TDRS 7                  
1 23613U 95035B   24101.73323314 -.00000212  00000+0  00000+0 0  9995
2 23613  13.7108 353.7062 0027801  62.8306 131.7722  1.00274159105251
ISS (ZARYA)             
1 25544U 98067A   24102.51946635  .00012912  00000+0  23308-3 0  9991
2 25544  51.6402 285.9562 0004789  57.9477  36.7940 15.50088630448207
LANDSAT 7               
1 25682U 99020A   24102.57557751  .00000521  00000+0  11629-3 0  9993
2 25682  97.8949 132.4928 0001478 108.1276   4.9088 14.60551164329472
TERRA                   
1 25994U 99068A   24102.47349958  .00000579  00000+0  13111-3 0  9999
2 25994  98.0535 167.9110 0001884 171.1091 314.0378 14.59648848293431
TDRS 8                  
1 26388U 00034A   24102.50535410  .00000089  00000+0  00000+0 0  9991
2 26388  11.4372  37.7780 0003491 289.4905 247.4078  1.00279724 87181
TIMED                   
1 26998U 01055B   24102.16190676  .00001789  00000+0  18463-3 0  9999
2 26998  74.0725  35.2822 0000706 224.4171 135.6955 14.91025628211979
TDRS 9                  
1 27389U 02011A   24101.07480036 -.00000151  00000+0  00000+0 0  9995
2 27389  10.4590  54.4723 0002666  58.7932 119.7612  0.98984017 82383
AQUA                    
1 27424U 02022A   24102.52420322  .00001251  00000+0  27619-3 0  9990
2 27424  98.3250  51.6782 0001269  49.3765  41.3115 14.59069243166998
TDRS 10                 
1 27566U 02055A   24101.59354775  .00000081  00000+0  00000+0 0  9998
2 27566   9.4377  45.8631 0007270 325.8422 230.1028  1.00270029 78234
SORCE                   
1 27651U 03004A   24101.68470173  .00002855  00000+0  27251-3 0  9991
2 27651  39.9926 103.1858 0019243 121.7705 238.4963 14.94420009152140
AURA                    
1 28376U 04026A   24101.93388652  .00001208  00000+0  27082-3 0  9992
2 28376  98.2459  47.2682 0000825  61.5939 298.5343 14.58361937 49871
SWIFT                   
1 28485U 04047A   24101.88471755  .00011337  00000+0  53025-3 0  9997
2 28485  20.5577 302.3700 0008663 124.3319 235.7938 15.17047761 63933
THEMIS A                
1 30580U 07004A   24100.01360230 -.00000606  00000+0  00000+0 0  9990
2 30580  10.5515 270.6207 8333047 307.6203   2.4345  0.87833218 34250
THEMIS D                
1 30797U 07004D   24102.26575670 -.00000533  00000+0  00000+0 0  9994
2 30797   6.6015 265.3343 8321045 316.8126 342.1052  0.87834472 58487
THEMIS E                
1 30798U 07004E   24102.11319358 -.00000541  00000+0  00000+0 0  9997
2 30798   8.0772 284.2551 8316922 299.2742 309.7645  0.87831983 58909
AIM                     
1 31304U 07015A   24101.88224861  .00062440  00000+0  96543-3 0  9996
2 31304  97.9017  70.3297 0003400 139.6948 220.4556 15.53877816932639
FGRST (GLAST)           
1 33053U 08029A   24101.92394562  .00003657  00000+0  16865-3 0  9990
2 33053  25.5829 311.0581 0010287 331.0992  28.8975 15.16150773874353
WISE                    
1 36119U 09071A   24101.81616040  .00034217  00000+0  47123-3 0  9997
2 36119  97.1556 137.8296 0002509  77.2139 282.9397 15.57171714797738
TDRS 11                 
1 39070U 13004A   24101.76798552  .00000073  00000+0  00000+0 0  9992
2 39070   2.7209   9.2305 0005424  38.0829 254.2998  1.00276628 38692
TDRS 12                 
1 39504U 14004A   24102.43884022 -.00000277  00000+0  00000+0 0  9995
2 39504   3.5529   1.7825 0001793 208.2172 107.2217  1.00274100 37456
GPM-CORE                
1 39574U 14009C   24102.24466652 -.00000253  00000+0  24173-6 0  9999
2 39574  64.9837  97.1356 0009205 256.1328 103.8789 15.44108583574732
MMS 1                   
1 40482U 15011A   24102.00001157 -.00001420  00000+0  00000+0 0  9995
2 40482  43.9364  16.5766 9123345 142.1000 101.6240  0.28399122 15180
MMS 2                   
1 40483U 15011B   24102.00001157 -.00001420  00000+0  00000+0 0  9996
2 40483  43.9315  16.5693 9123371 142.1071 101.6188  0.28399131 15162
MMS 3                   
1 40484U 15011C   24102.00001157 -.00001420  00000+0  00000+0 0  9997
2 40484  43.9351  16.5740 9123930 142.1082 101.6047  0.28399108 15167
MMS 4                   
1 40485U 15011D   24102.00001157 -.00001420  00000+0  00000+0 0  9998
2 40485  43.9345  16.5745 9122809 142.1078 101.6036  0.28399098 15161
TDRS 13                 
1 42915U 17047A   24101.88938331 -.00000111  00000+0  00000+0 0  9993
2 42915   3.6969 343.2474 0015479 106.6804  58.3232  1.00271749 24352
JPSS-1                  
1 43013U 17073A   24102.52327317  .00000137  00000+0  85756-4 0  9993
2 43013  98.7043  41.5755 0001671  77.9601 282.1763 14.19459229331446
